COSMOS 2550             
1 48865U 21056A   26067.47400841 -.00000192  00000+0 -13338-7 0  9992
2 48865  67.1451  44.6088 0008369 269.6014  90.4182 15.33829151263273
STARLINK-34603          
1 65220U 25176Y   26068.51923312  .00027017  00000+0  92132-3 0  9990
2 65220  53.1574 153.5708 0001343  71.6489 288.4657 15.30187827 33094
