[{"OBJECT_NAME":"COSMOS 2550","OBJECT_ID":"2021-056A","EPOCH":"2026-03-08T11:22:34.326624","MEAN_MOTION":15.33829151,"ECCENTRICITY":0.00083692,"INCLINATION":67.1451,"RA_OF_ASC_NODE":44.6088,"ARG_OF_PERICENTER":269.6014,"MEAN_ANOMALY":90.4182,"EPHEMERIS_TYPE":0,"CLASSIFICATION_TYPE":"U","NORAD_CAT_ID":48865,"ELEMENT_SET_NO":999,"REV_AT_EPOCH":26327,"BSTAR":-1.3338e-8,"MEAN_MOTION_DOT":-1.92e-6,"MEAN_MOTION_DDOT":0},{"OBJECT_NAME":"STARLINK-34603","OBJECT_ID":"2025-176Y","EPOCH":"2026-03-09T12:27:41.741568","MEAN_MOTION":15.30187827,"ECCENTRICITY":0.00013435,"INCLINATION":53.1574,"RA_OF_ASC_NODE":153.5708,"ARG_OF_PERICENTER":71.6489,"MEAN_ANOMALY":288.4657,"EPHEMERIS_TYPE":0,"CLASSIFICATION_TYPE":"U","NORAD_CAT_ID":65220,"ELEMENT_SET_NO":999,"REV_AT_EPOCH":3309,"BSTAR":0.00092131687,"MEAN_MOTION_DOT":0.00027017,"MEAN_MOTION_DDOT":0}]
